{
    "links": {
        "self": "http://www.neowsapp.com/rest/v1/neo/3741974?api_key=iIulBulltgU6a56xZRHN4H3l9WmuAYTsLGpBGhQ2"
    },
    "id": "3741974",
    "neo_reference_id": "3741974",
    "name": "(2016 CD30)",
    "designation": "2016 CD30",
    "nasa_jpl_url": "http://ssd.jpl.nasa.gov/sbdb.cgi?sstr=3741974",
    "absolute_magnitude_h": 27.8,
    "estimated_diameter": {
        "kilometers": {
            "estimated_diameter_min": 0.0073207399,
            "estimated_diameter_max": 0.016369672
        },
        "meters": {
            "estimated_diameter_min": 7.3207398935,
            "estimated_diameter_max": 16.3696720474
        },
        "miles": {
            "estimated_diameter_min": 0.0045488955,
            "estimated_diameter_max": 0.0101716395
        },
        "feet": {
            "estimated_diameter_min": 24.0181762721,
            "estimated_diameter_max": 53.70627484
        }
    },
    "is_potentially_hazardous_asteroid": false,
    "close_approach_data": [
        {
            "close_approach_date": "2016-02-01",
            "close_approach_date_full": "2016-Feb-01 06:48",
            "epoch_date_close_approach": 1454309280000,
            "relative_velocity": {
                "kilometers_per_second": "10.6994460042",
                "kilometers_per_hour": "38518.0056150163",
                "miles_per_hour": "23933.5907667306"
            },
            "miss_distance": {
                "astronomical": "0.0065775474",
                "lunar": "2.5586659386",
                "kilometers": "983987.080864038",
                "miles": "611421.2200702044"
            },
            "orbiting_body": "Earth"
        },
        {
            "close_approach_date": "2016-02-01",
            "close_approach_date_full": "2016-Feb-01 09:40",
            "epoch_date_close_approach": 1454319600000,
            "relative_velocity": {
                "kilometers_per_second": "11.5513744389",
                "kilometers_per_hour": "41584.947980058",
                "miles_per_hour": "25839.2694823866"
            },
            "miss_distance": {
                "astronomical": "0.0090121075",
                "lunar": "3.5057098175",
                "kilometers": "1348192.086211025",
                "miles": "837727.716421145"
            },
            "orbiting_body": "Moon"
        }
    ],
    "orbital_data": {
        "orbit_id": "8",
        "orbit_determination_date": "2017-04-06 08:28:40",
        "first_observation_date": "2016-02-05",
        "last_observation_date": "2016-02-11",
        "data_arc_in_days": 6,
        "observations_used": 32,
        "orbit_uncertainty": "8",
        "minimum_orbit_intersection": ".00220956",
        "jupiter_tisserand_invariant": "3.948",
        "epoch_osculation": "2457427.5",
        "eccentricity": ".4966898326233186",
        "semi_major_axis": "1.769448648949011",
        "inclination": "5.857474796715902",
        "ascending_node_longitude": "131.9240308061204",
        "orbital_period": "859.71671814425",
        "perihelion_distance": ".8905814956669695",
        "perihelion_argument": "313.9117807009841",
        "aphelion_distance": "2.648315802231053",
        "perihelion_time": "2457385.762083350731",
        "mean_anomaly": "17.47744306539787",
        "mean_motion": ".4187425839258792",
        "equinox": "J2000",
        "orbit_class": {
            "orbit_class_type": "APO",
            "orbit_class_description": "Near-Earth asteroid orbits which cross the Earth’s orbit similar to that of 1862 Apollo",
            "orbit_class_range": "a (semi-major axis) > 1.0 AU; q (perihelion) < 1.017 AU"
        }
    },
    "is_sentry_object": false
}